[Satellite]
VERSION=1.1
NAME=PCSAT (NO-44)
NICKNAME=NO-44
TLE1=1 26931U 01043C   17186.00675823 -.00000038  00000-0  17363-4 0  9999
TLE2=2 26931  67.0517  45.2202 0007612 262.9352  97.0883 14.30465351822895
